QIANFAN-65              
1 62795U 25016L   25353.24815465  .00000138  00000+0  19458-3 0  9997
2 62795  88.9766 102.3867 0012583 329.2402  30.8010 13.50986145 48122
QIANFAN-66              
1 62796U 25016M   25353.27697014  .00000134  00000+0  18846-3 0  9995
2 62796  88.9785 102.3551 0013614 323.7965  36.2263 13.50978926 48176
QIANFAN-67              
1 62797U 25016N   25353.20713840  .00000128  00000+0  17922-3 0  9992
2 62797  88.9776 102.3873 0013719 331.6168  28.4234 13.50983058 48132
QIANFAN-68              
1 62798U 25016P   25353.27288598  .00000142  00000+0  20122-3 0  9999
2 62798  88.9779 102.4260 0013739 329.4540  30.5809 13.50985487 48127
QIANFAN-69              
1 62799U 25016Q   25353.21530137  .00000142  00000+0  20181-3 0  9998
2 62799  88.9758 102.2999 0014500 330.6450  29.3885 13.50988286 48156
QIANFAN-70              
1 62800U 25016R   25353.23177031  .00000144  00000+0  20472-3 0  9998
2 62800  88.9779 102.4380 0013939 320.1444  39.8683 13.50979168 48117
QIANFAN-71              
1 62801U 25016S   25353.00538266  .00000137  00000+0  19363-3 0  9994
2 62801  88.9772 102.4405 0014518 335.1508  24.8942 13.50986114 48087
QIANFAN-72              
1 62802U 25016T   25353.31810750  .00000138  00000+0  19493-3 0  9995
2 62802  88.9763 102.4210 0017917 341.0209  19.0272 13.50986275 48116
